MALLIGYONG-1            
1 58400U 23179A   24126.51821227  .00006075  00000+0  26641-3 0  9991
2 58400  97.4099  14.0128 0010827  60.0141 300.2169 15.22292031 25233
